NORAD_CAT_ID,OBJECT_NAME,OBJECT_TYPE,EPOCH,MEAN_MOTION,ECCENTRICITY,INCLINATION,RA_OF_ASC_NODE,ARG_OF_PERICENTER,MEAN_ANOMALY,BSTAR,MEAN_MOTION_DOT,MEAN_MOTION_DDOT,TLE_LINE0,TLE_LINE1,TLE_LINE2,SEMIMAJOR_AXIS,PERIOD,APOGEE,PERIGEE,DECAYED
54071.0,STARLINK-5168,PAYLOAD,2024-07-17 14:04:33,15.08834521,0.0001432,53.218,157.7503,100.0639,260.0515,-5.8132e-05,-1.213e-05,0.0,0 STARLINK-5168,1 54071U 22136W   24199.58649985 -.00001213  00000-0 -58132-4 0  9992,2 54071  53.2180 157.7503 0001432 100.0639 260.0515 15.08834521 96253,6917.897,95.438,540.753,538.771,0.0
54071.0,STARLINK-5168,PAYLOAD,2024-07-18 04:23:01,15.08840479,0.0001521,53.2177,155.0738,110.1585,249.9571,8.0087e-05,9.87e-06,0.0,0 STARLINK-5168,1 54071U 22136W   24200.18265417  .00000987  00000-0  80087-4 0  9994,2 54071  53.2177 155.0738 0001521 110.1585 249.9571 15.08840479 96821,6917.879,95.438,540.796,538.692,0.0
54071.0,STARLINK-5168,PAYLOAD,2024-07-18 13:55:20,15.08842079,0.000125,53.2173,153.2872,95.6151,264.4984,0.00010435,1.373e-05,0.0,0 STARLINK-5168,1 54071U 22136W   24200.58009263  .00001373  00000-0  10435-3 0  9992,2 54071  53.2173 153.2872 0001250  95.6151 264.4984 15.08842079 96403,6917.874,95.437,540.604,538.874,0.0
54071.0,STARLINK-5168,PAYLOAD,2024-07-19 04:13:54,15.08768462,0.0001632,53.2165,150.6122,97.8078,262.31,-0.00045975,-7.583e-05,0.0,0 STARLINK-5168,1 54071U 22136W   24201.17632457 -.00007583  00000-0 -45975-3 0  9993,2 54071  53.2165 150.6122 0001632  97.8078 262.3100 15.08768462 96971,6918.099,95.442,541.093,538.835,0.0
54071.0,STARLINK-5168,PAYLOAD,2024-07-19 13:46:09,15.08819926,0.0001038,53.2166,148.8277,102.1091,258.0018,-4.0193e-06,-3.52e-06,0.0,0 STARLINK-5168,1 54071U 22136W   24201.57372650 -.00000352  00000-0 -40193-5 0  9999,2 54071  53.2166 148.8277 0001038 102.1091 258.0018 15.08819926 96553,6917.942,95.439,540.525,539.089,0.0
54071.0,STARLINK-5168,PAYLOAD,2024-07-20 04:04:36,15.08847244,0.000147,53.2161,146.15,91.3166,268.7995,8.4329e-05,1.055e-05,0.0,0 STARLINK-5168,1 54071U 22136W   24202.16987132  .00001055  00000-0  84329-4 0  9999,2 54071  53.2161 146.1500 0001470  91.3166 268.7995 15.08847244 97120,6917.858,95.437,540.74,538.706,0.0
54071.0,STARLINK-5168,PAYLOAD,2024-07-20 13:36:55,15.08851292,0.0001408,53.2168,144.366,91.5813,268.5341,0.0001353,1.867e-05,0.0,0 STARLINK-5168,1 54071U 22136W   24202.56730671  .00001867  00000-0  13530-3 0  9993,2 54071  53.2168 144.3660 0001408  91.5813 268.5341 15.08851292 96700,6917.846,95.437,540.685,538.737,0.0
54071.0,STARLINK-5168,PAYLOAD,2024-07-21 02:20:00,15.08826797,0.0001659,53.2161,141.9864,93.306,266.8122,0.0007473,0.00011621,0.0,0 STARLINK-5168,1 54071U 22136W   24203.09722571  .00011621  00000-0  74730-3 0  9990,2 54071  53.2161 141.9864 0001659  93.3060 266.8122 15.08826797 97266,6917.921,95.438,540.933,538.638,0.0
54071.0,STARLINK-5168,PAYLOAD,2024-07-22 02:10:47,15.08856378,0.0001379,53.2169,137.5274,93.1321,266.9829,4.7296e-05,4.65e-06,0.0,0 STARLINK-5168,1 54071U 22136W   24204.09082582  .00000465  00000-0  47296-4 0  9994,2 54071  53.2169 137.5274 0001379  93.1321 266.9829 15.08856378 96933,6917.83,95.437,540.649,538.741,0.0
54071.0,STARLINK-5168,PAYLOAD,2024-07-22 22:50:47,15.08855069,0.0001334,53.2167,133.6593,99.4467,260.6676,-2.7852e-05,-7.31e-06,0.0,0 STARLINK-5168,1 54071U 22136W   24204.95193956 -.00000731  00000-0 -27852-4 0  9991,2 54071  53.2167 133.6593 0001334  99.4467 260.6676 15.08855069 97065,6917.834,95.437,540.622,538.776,0.0
54071.0,STARLINK-5168,PAYLOAD,2024-07-23 02:01:33,15.08863642,0.0001477,53.2173,133.0637,109.9021,250.2131,-5.9468e-05,-1.235e-05,0.0,0 STARLINK-5168,1 54071U 22136W   24205.08441312 -.00001235  00000-0 -59468-4 0  9996,2 54071  53.2173 133.0637 0001477 109.9021 250.2131 15.08863642 97568,6917.808,95.436,540.695,538.651,0.0
54071.0,STARLINK-5168,PAYLOAD,2024-07-23 19:30:49,15.08835757,0.0001388,53.2173,129.7958,102.6445,257.4702,-8.7884e-06,-4.28e-06,0.0,0 STARLINK-5168,1 54071U 22136W   24205.81306918 -.00000428  00000-0 -87884-5 0  9996,2 54071  53.2173 129.7958 0001388 102.6445 257.4702 15.08835757 97678,6917.893,95.438,540.719,538.798,0.0
54071.0,STARLINK-5168,PAYLOAD,2024-07-23 22:41:35,15.0883184,9.89e-05,53.2165,129.1952,90.7433,269.3672,-3.8316e-05,-8.97e-06,0.0,0 STARLINK-5168,1 54071U 22136W   24205.94555242 -.00000897  00000-0 -38316-4 0  9991,2 54071  53.2165 129.1952 0000989  90.7433 269.3672 15.08831840 97214,6917.905,95.438,540.455,539.086,0.0
54071.0,STARLINK-5168,PAYLOAD,2024-07-24 01:52:22,15.08831717,0.0001152,53.2164,128.6011,96.4192,263.6931,-4.5387e-05,-1.01e-05,0.0,0 STARLINK-5168,1 54071U 22136W   24206.07803305 -.00001010  00000-0 -45387-4 0  9996,2 54071  53.2164 128.6011 0001152  96.4192 263.6931 15.08831717 97231,6917.906,95.438,540.568,538.974,0.0
54071.0,STARLINK-5168,PAYLOAD,2024-07-24 22:32:22,15.08846825,0.0001017,53.2167,124.7425,97.2933,262.8174,-1.0412e-05,-4.54e-06,0.0,0 STARLINK-5168,1 54071U 22136W   24206.93914543 -.00000454  00000-0 -10412-4 0  9990,2 54071  53.2167 124.7425 0001017  97.2933 262.8174 15.08846825 97362,6917.86,95.437,540.428,539.021,0.0
54071.0,STARLINK-5168,PAYLOAD,2024-07-25 00:07:45,15.0884879,0.0001044,53.2167,124.445,96.5234,263.5877,1.049e-05,-1.21e-06,0.0,0 STARLINK-5168,1 54071U 22136W   24207.00538354 -.00000121  00000-0  10490-4 0  9997,2 54071  53.2167 124.4450 0001044  96.5234 263.5877 15.08848790 97858,6917.854,95.437,540.441,538.996,0.0
54071.0,STARLINK-5168,PAYLOAD,2024-07-25 22:23:09,15.08832346,0.0001231,53.2168,120.2827,86.2118,273.9015,0.00017925,2.565e-05,0.0,0 STARLINK-5168,1 54071U 22136W   24207.93275009  .00002565  00000-0  17925-3 0  9996,2 54071  53.2168 120.2827 0001231  86.2118 273.9015 15.08832346 97518,6917.904,95.438,540.62,538.917,0.0
54071.0,STARLINK-5168,PAYLOAD,2024-07-26 03:09:18,15.08836497,0.0001262,53.2169,119.3853,78.4929,281.6205,0.00018346,2.633e-05,0.0,0 STARLINK-5168,1 54071U 22136W   24208.13146874  .00002633  00000-0  18346-3 0  9990,2 54071  53.2169 119.3853 0001262  78.4929 281.6205 15.08836497 98029,6917.891,95.438,540.629,538.883,0.0
54071.0,STARLINK-5168,PAYLOAD,2024-07-26 17:27:47,15.08844924,0.0001285,53.2175,116.7122,83.8357,276.2782,2.6819e-05,1.39e-06,0.0,0 STARLINK-5168,1 54071U 22136W   24208.72762738  .00000139  00000-0  26819-4 0  9992,2 54071  53.2175 116.7122 0001285  83.8357 276.2782 15.08844924 97636,6917.865,95.437,540.619,538.841,0.0
54071.0,STARLINK-5168,PAYLOAD,2024-07-28 01:15:30,15.08838895,0.0001231,53.218,110.76,64.4677,295.6442,5.0207e-05,5.11e-06,0.0,0 STARLINK-5168,1 54071U 22136W   24210.05243106  .00000511  00000-0  50207-4 0  9996,2 54071  53.2180 110.7600 0001231  64.4677 295.6442 15.08838895 98312,6917.884,95.438,540.6,538.897,0.0
54071.0,STARLINK-5168,PAYLOAD,2024-07-28 10:47:49,15.08835168,0.0001488,53.2176,108.9787,83.8624,276.2538,-5.4152e-05,-1.15e-05,0.0,0 STARLINK-5168,1 54071U 22136W   24210.44987745 -.00001150  00000-0 -54152-4 0  9998,2 54071  53.2176 108.9787 0001488  83.8624 276.2538 15.08835168 98370,6917.895,95.438,540.79,538.731,0.0
54071.0,STARLINK-5168,PAYLOAD,2024-07-28 21:55:31,15.08833222,0.0001717,53.2164,106.8996,76.1673,283.951,3.753e-05,3.09e-06,0.0,0 STARLINK-5168,1 54071U 22136W   24210.91355849  .00000309  00000-0  37530-4 0  9998,2 54071  53.2164 106.8996 0001717  76.1673 283.9510 15.08833222 97968,6917.901,95.438,540.954,538.578,0.0
54071.0,STARLINK-5168,PAYLOAD,2024-07-29 10:38:35,15.08841555,0.0001524,53.2168,104.5178,90.5112,269.6055,0.00010027,1.308e-05,0.0,0 STARLINK-5168,1 54071U 22136W   24211.44347170  .00001308  00000-0  10027-3 0  9996,2 54071  53.2168 104.5178 0001524  90.5112 269.6055 15.08841555 98529,6917.876,95.437,540.795,538.686,0.0
54071.0,STARLINK-5168,PAYLOAD,2024-07-29 21:46:17,15.08843619,0.0001538,53.2176,102.4379,94.6957,265.4211,0.00010557,1.393e-05,0.0,0 STARLINK-5168,1 54071U 22136W   24211.90715105  .00001393  00000-0  10557-3 0  9996,2 54071  53.2176 102.4379 0001538  94.6957 265.4211 15.08843619 98111,6917.869,95.437,540.798,538.67,0.0
54071.0,STARLINK-5168,PAYLOAD,2024-07-29 23:21:40,15.08846216,0.0001555,53.2178,102.1395,98.9876,261.1292,0.00011668,1.57e-05,0.0,0 STARLINK-5168,1 54071U 22136W   24211.97338890  .00001570  00000-0  11668-3 0  9996,2 54071  53.2178 102.1395 0001555  98.9876 261.1292 15.08846216 98123,6917.861,95.437,540.802,538.651,0.0
54071.0,STARLINK-5168,PAYLOAD,2024-07-30 21:37:05,15.08832589,0.0001603,53.2178,97.9765,97.9505,262.1669,0.00034677,5.234e-05,0.0,0 STARLINK-5168,1 54071U 22136W   24212.90075333  .00005234  00000-0  34677-3 0  9996,2 54071  53.2178  97.9765 0001603  97.9505 262.1669 15.08832589 98742,6917.903,95.438,540.877,538.659,0.0
54071.0,STARLINK-5168,PAYLOAD,2024-07-30 23:12:27,15.0884555,0.0001512,53.2167,97.6797,94.0179,266.0986,0.00018475,2.654e-05,0.0,0 STARLINK-5168,1 54071U 22136W   24212.96698780  .00002654  00000-0  18475-3 0  9990,2 54071  53.2167  97.6797 0001512  94.0179 266.0986 15.08845550 98271,6917.863,95.437,540.774,538.682,0.0
54071.0,STARLINK-5168,PAYLOAD,2024-07-31 21:27:52,15.08835158,0.0001392,53.2171,93.5162,95.2134,264.9017,-4.3377e-05,-9.78e-06,0.0,0 STARLINK-5168,1 54071U 22136W   24213.89436071 -.00000978  00000-0 -43377-4 0  9995,2 54071  53.2171  93.5162 0001392  95.2134 264.9017 15.08835158 98890,6917.895,95.438,540.723,538.797,0.0
54071.0,STARLINK-5168,PAYLOAD,2024-07-31 23:03:15,15.08836213,0.0001383,53.2172,93.2195,93.4281,266.687,-4.286e-05,-9.7e-06,0.0,0 STARLINK-5168,1 54071U 22136W   24213.96060024 -.00000970  00000-0 -42860-4 0  9992,2 54071  53.2172  93.2195 0001383  93.4281 266.6870 15.08836213 98425,6917.892,95.438,540.714,538.8,0.0
54071.0,STARLINK-5168,PAYLOAD,2024-08-01 14:57:06,15.08846852,9.41e-05,53.2161,90.241,88.5416,271.5684,-5.9154e-06,-3.82e-06,0.0,0 STARLINK-5168,1 54071U 22136W   24214.62299185 -.00000382  00000-0 -59154-5 0  9990,2 54071  53.2161  90.2410 0000941  88.5416 271.5684 15.08846852 98523,6917.859,95.437,540.375,539.073,0.0
